ORBCOMM FM33            
1 25983U 99065D   25207.84501671  .00000847  00000+0  31092-3 0  9990
2 25983  45.0274 170.4015 0010003 271.4299  88.5405 14.40059223341780
ORBCOMM FM36            
1 25984U 99065E   25207.86175369  .00000829  00000+0  31715-3 0  9996
2 25984  45.0386 262.8685 0003291 189.5451 170.5336 14.38192830340136
ORBCOMM FM35            
1 25985U 99065F   25207.86995893  .00000769  00000+0  30341-3 0  9996
2 25985  45.0391 268.1788 0006032 239.6739 120.3513 14.37157982340495
ORBCOMM FM34            
1 25986U 99065G   25207.76589072  .00000588  00000+0  24332-3 0  9996
2 25986  45.0386 269.1317 0005330 206.2927 153.7652 14.37173631340592
ORBCOMM FM38            
1 33060U 08031A   25207.87303500  .00001940  00000+0  27228-3 0  9993
2 33060  48.4395 126.1024 0004965 215.3478 144.7109 14.81437765920639
ORBCOMM FM41            
1 33061U 08031B   25208.18722236  .00001686  00000+0  24261-3 0  9991
2 33061  48.4430 132.5219 0004072 202.0551 317.4853 14.81018807920605
ORBCOMM FM29            
1 33062U 08031C   25207.88115181  .00001764  00000+0  25194-3 0  9996
2 33062  48.4388 141.7404 0005700 198.8729 226.3182 14.81122680920039
ORBCOMM FM39            
1 33063U 08031D   25208.14135077  .00001586  00000+0  23703-3 0  9999
2 33063  48.4395 165.2132 0006369 170.9888 189.1143 14.79662748920131
